"","FlippedHomes2011$Address","city","state","zip"
"1","10 T ST NW","Washington","DC",20001
"2","100 ONEIDA ST NE","Washington","DC",20011
"3","1002 COLUMBIA RD NW","Washington","DC",20001
"4","1003 EVARTS ST NE","Washington","DC",20018
"5","1003 HAMILTON ST NE","Washington","DC",20011
"6","1004 UPSHUR ST NE","Washington","DC",20017
"7","1007 TAYLOR ST NE","Washington","DC",20017
"8","1008 10TH ST NE","Washington","DC",20002
"9","1008 FAIRMONT ST NW","Washington","DC",20001
"10","1009 9TH ST NE","Washington","DC",20002
"11","1010 CRITTENDEN ST NE","Washington","DC",20017
"12","1010 CRITTENDEN ST NE","Washington","DC",20017
"13","1010 K ST NE","Washington","DC",20002
"14","1013 DECATUR ST NE","Washington","DC",20017
"15","1014 BRYANT ST NE","Washington","DC",20018
"16","1016 QUEBEC PL NW","Washington","DC",20010
"17","1020 FLORIDA AVE NE","Washington","DC",20002
"18","1022 TAUSSIG PL NE","Washington","DC",20017
"19","1025 FLORIDA AVE NE","Washington","DC",20002
"20","1026 QUEBEC PL NW","Washington","DC",20010
"21","103 LONGFELLOW ST NW","Washington","DC",20011
"22","1033 7TH ST NE","Washington","DC",20002
"23","104 U ST NE","Washington","DC",20002
"24","1047 TAUSSIG PL NE","Washington","DC",20017
"25","106 VICTOR ST NE","Washington","DC",20011
"26","107 ROCK CREEK CHURCH RD NW","Washington","DC",20011
"27","107 SEATON PL NW","Washington","DC",20001
"28","1107 16TH ST NE","Washington","DC",20002
"29","1107 16TH ST NE","Washington","DC",20002
"30","1107 C ST NE","Washington","DC",20002
"31","1109 I ST NE","Washington","DC",20002
"32","1117 FAIRMONT ST NW","Washington","DC",20009
"33","112 RITTENHOUSE ST NE","Washington","DC",20011
"34","1120 GERANIUM ST NW","Washington","DC",20012
"35","1122 OATES ST NE","Washington","DC",20002
"36","1125 OWEN PL NE","Washington","DC",20002
"37","113 WEBSTER ST NW","Washington","DC",20011
"38","1130 NEAL ST NE","Washington","DC",20002
"39","1131 7TH ST NE","Washington","DC",20002
"40","1132 NEAL ST NE","Washington","DC",20002
"41","115 HAMILTON ST NW","Washington","DC",20011
"42","1166 1ST ST NW","Washington","DC",20001
"43","117 3RD ST NE","Washington","DC",20002
"44","1170 MORSE ST NE","Washington","DC",20002
"45","12 EVARTS ST NE","Washington","DC",20002
"46","12 HANOVER PL NW","Washington","DC",20001
"47","120 BRYANT ST NW","Washington","DC",20001
"48","1201 QUEEN ST NE","Washington","DC",20002
"49","1201 QUEEN ST NE","Washington","DC",20002
"50","1201 QUEEN ST NE","Washington","DC",20002
"51","1205 C ST NE","Washington","DC",20002
"52","1206 FLORAL ST NW","Washington","DC",20012
"53","1206 GALLATIN ST NW","Washington","DC",20011
"54","1206 KENNEDY ST NW","Washington","DC",20011
"55","1207 EMERSON ST NW","Washington","DC",20011
"56","1207 QUEEN ST NE","Washington","DC",20002
"57","1209 S ST NW","Washington","DC",20009
"58","121 18TH ST SE","Washington","DC",20003
"59","121 ROCK CREEK CHURCH RD NW","Washington","DC",20011
"60","1210 INDEPENDENCE AVE SE","Washington","DC",20003
"61","1210 POTOMAC AVE SE","Washington","DC",20003
"62","1211 GALLATIN ST NW","Washington","DC",20011
"63","1211 QUEEN ST NE","Washington","DC",20002
"64","1211 RAUM ST NE","Washington","DC",20002
"65","1213 18TH ST NE","Washington","DC",20002
"66","1215 I ST SE","Washington","DC",20003
"67","1215 INGRAHAM ST NW","Washington","DC",20011
"68","1216 18TH ST NE","Washington","DC",20002
"69","1217 18TH ST NE","Washington","DC",20002
"70","1217 UPSHUR ST NE","Washington","DC",20017
"71","1219 FLORAL ST NW","Washington","DC",20012
"72","1219 GALLATIN ST NW","Washington","DC",20011
"73","1219 INDEPENDENCE AVE SE","Washington","DC",20003
"74","1219 KENNEDY ST NW","Washington","DC",20011
"75","122 18TH ST SE","Washington","DC",20003
"76","122 LONGFELLOW ST NW","Washington","DC",20011
"77","1220 ALLISON ST NE","Washington","DC",20017
"78","1220 JACKSON ST NE","Washington","DC",20017
"79","1221 TRINIDAD AVE NE","Washington","DC",20002
"80","1223 4TH ST NW","Washington","DC",20001
"81","1223 IRVING ST NE","Washington","DC",20017
"82","1224 FAIRMONT ST NW","Washington","DC",20009
"83","1226 QUINCY ST NW","Washington","DC",20011
"84","1227 HAMILTON ST NW","Washington","DC",20011
"85","1227 ORREN ST NE","Washington","DC",20002
"86","1229 CONSTITUTION AVE NE","Washington","DC",20002
"87","1229 GIRARD ST NE","Washington","DC",20017
"88","1229 GIRARD ST NE","Washington","DC",20017
"89","1229 OWEN PL NE","Washington","DC",20002
"90","123 11TH ST SE","Washington","DC",20003
"91","1230 HAMILTON ST NW","Washington","DC",20011
"92","1231 ROCK CREEK FORD RD NW","Washington","DC",20011
"93","1232 C ST NE","Washington","DC",20002
"94","1234 C ST NE","Washington","DC",20002
"95","1236 RHODE ISLAND AVE NE","Washington","DC",20018
"96","1237 16TH ST NE","Washington","DC",20002
"97","124 4TH ST NE","Washington","DC",20002
"98","124 U ST NE","Washington","DC",20002
"99","124 U ST NE","Washington","DC",20002
"100","1241 I ST NE","Washington","DC",20002
"101","1242 NEAL ST NE","Washington","DC",20002
"102","1242 POTOMAC ST NW","Washington","DC",20007
"103","1242 POTOMAC ST NW","Washington","DC",20007
"104","1243 LINDEN PL NE","Washington","DC",20002
"105","1247 FARRAGUT PL NE","Washington","DC",20017
"106","125 INGRAHAM ST NW","Washington","DC",20011
"107","1252 PENN ST NE","Washington","DC",20002
"108","1255 WYLIE ST NE","Washington","DC",20002
"109","1259 OWEN PL NE","Washington","DC",20002
"110","1265 OWEN PL NE","Washington","DC",20002
"111","127 16TH ST NE","Washington","DC",20002
"112","127 18TH ST SE","Washington","DC",20003
"113","1278 DELAFIELD PL NE","Washington","DC",20017
"114","1279 PENN ST NE","Washington","DC",20002
"115","1279 PENN ST NE","Washington","DC",20002
"116","1288 MORSE ST NE","Washington","DC",20002
"117","1288 NEAL ST NE","Washington","DC",20002
"118","13 EVARTS ST NE","Washington","DC",20002
"119","13 Q ST NE","Washington","DC",20002
"120","1300 TAYLOR ST NE","Washington","DC",20017
"121","1301 TRINIDAD AVE NE","Washington","DC",20002
"122","1303 ALLISON ST NW","Washington","DC",20011
"123","1303 BUCHANAN ST NW","Washington","DC",20011
"124","1304 E ST NE","Washington","DC",20002
"125","1304 SHEPHERD ST NW","Washington","DC",20011
"126","1304 TRINIDAD AVE NE","Washington","DC",20002
"127","1307 EMERSON ST NW","Washington","DC",20011
"128","1307 FERN ST NW","Washington","DC",20012
"129","1307 TAYLOR ST NW","Washington","DC",20011
"130","1309 NORTH CAROLINA AVE NE","Washington","DC",20002
"131","131 JEFFERSON ST NW","Washington","DC",20011
"132","1310 MONTELLO AVE NE","Washington","DC",20002
"133","1310 W ST NE","Washington","DC",20018
"134","1311 HAMLIN ST NE","Washington","DC",20017
"135","1312 31ST ST NW","Washington","DC",20007
"136","1312 BUCHANAN ST NW","Washington","DC",20011
"137","1312 STAPLES ST NE","Washington","DC",20002
"138","1312 UNDERWOOD ST NW","Washington","DC",20012
"139","1313 D ST NE","Washington","DC",20002
"140","1314 STAPLES ST NE","Washington","DC",20002
"141","1315 DELAFIELD PL NW","Washington","DC",20011
"142","1317 SPRING RD NW","Washington","DC",20010
"143","1319 CORBIN PL NE","Washington","DC",20002
"144","1319 EMERALD ST NE","Washington","DC",20002
"145","1321 MASSACHUSETTS AVE SE","Washington","DC",20003
"146","1323 WEST VIRGINIA AVE NE","Washington","DC",20002
"147","1325 TRINIDAD AVE NE","Washington","DC",20002
"148","1326 CORBIN PL NE","Washington","DC",20002
"149","1326 E ST SE","Washington","DC",20003
"150","1326 QUEEN ST NE","Washington","DC",20002
"151","1326 TRINIDAD AVE NE","Washington","DC",20002
"152","1328 E ST NE","Washington","DC",20002
"153","1328 F ST NE","Washington","DC",20002
"154","1329 MONTELLO AVE NE","Washington","DC",20002
"155","133 BATES ST NW","Washington","DC",20001
"156","133 HAWAII AVE NE","Washington","DC",20011
"157","133 U ST NE","Washington","DC",20002
"158","1331 INGRAHAM ST NW","Washington","DC",20011
"159","1331 SPRING RD NW","Washington","DC",20010
"160","1333 R ST NW","Washington","DC",20009
"161","1334 QUEEN ST NE","Washington","DC",20002
"162","1336 A ST SE","Washington","DC",20003
"163","1339 KENNEDY ST NW","Washington","DC",20011
"164","1340 K ST SE","Washington","DC",20003
"165","1340 SPRING RD NW","Washington","DC",20010
"166","1340 W ST NE","Washington","DC",20018
"167","1340 WALLACH PL NW","Washington","DC",20009
"168","1341 MADISON ST NW","Washington","DC",20011
"169","1341 PARKWOOD PL NW","Washington","DC",20010
"170","1342 INGRAHAM ST NW","Washington","DC",20011
"171","1344 LEVIS ST NE","Washington","DC",20002
"172","1347 MONTAGUE ST NW","Washington","DC",20011
"173","1348 MADISON ST NW","Washington","DC",20011
"174","1349 SOUTH CAROLINA AVE SE","Washington","DC",20003
"175","1350 LEVIS ST NE","Washington","DC",20002
"176","1353 DOWNING ST NE","Washington","DC",20018
"177","1353 MARYLAND AVE NE","Washington","DC",20002
"178","1356 UNDERWOOD ST NW","Washington","DC",20012
"179","1360 C ST NE","Washington","DC",20002
"180","1365 QUINCY ST NW","Washington","DC",20011
"181","1365 TUCKERMAN ST NW","Washington","DC",20011
"182","1368 FRANKLIN ST NE","Washington","DC",20017
"183","1370 TAYLOR ST NW","Washington","DC",20011
"184","1375 EMERALD ST NE","Washington","DC",20002
"185","1387 SHERIDAN ST NW","Washington","DC",20011
"186","139 THOMAS ST NW","Washington","DC",20001
"187","14 O ST NW","Washington","DC",20001
"188","14 T ST NW","Washington","DC",20001
"189","1401 RITTENHOUSE ST NW","Washington","DC",20011
"190","1402 MASSACHUSETTS AVE SE","Washington","DC",20003
"191","1403 TRINIDAD AVE NE","Washington","DC",20002
"192","1405 PERRY PL NW","Washington","DC",20010
"193","1405 RIDGEVIEW WAY NW","Washington","DC",20007
"194","1410 BUCHANAN ST NW","Washington","DC",20011
"195","1413 MORSE ST NE","Washington","DC",20002
"196","1414 COLUMBIA ST NW","Washington","DC",20001
"197","1414 TRINIDAD AVE NE","Washington","DC",20002
"198","1418 G ST SE","Washington","DC",20003
"199","1418 POTOMAC AVE SE","Washington","DC",20003
"200","1419 G ST NE","Washington","DC",20002
"201","1419 G ST NE","Washington","DC",20002
"202","1420 CORCORAN ST NW","Washington","DC",20009
"203","1420 IVES PL SE","Washington","DC",20003
"204","1420 MADISON ST NW","Washington","DC",20011
"205","1420 MADISON ST NW","Washington","DC",20011
"206","1420 MORSE ST NE","Washington","DC",20002
"207","1420 TRINIDAD AVE NE","Washington","DC",20002
"208","1421 1ST ST NW","Washington","DC",20001
"209","1424 12TH ST NW","Washington","DC",20005
"210","1425 C ST NE","Washington","DC",20002
"211","1425 VARNUM ST NW","Washington","DC",20011
"212","1426 MORSE ST NE","Washington","DC",20002
"213","1427 D ST SE","Washington","DC",20003
"214","1428 BRENTWOOD RD NE","Washington","DC",20018
"215","1429 D ST SE","Washington","DC",20003
"216","1429 IVES PL SE","Washington","DC",20003
"217","1429 PARKWOOD PL NW","Washington","DC",20010
"218","1434 MONTANA AVE NE","Washington","DC",20018
"219","1437 G ST NE","Washington","DC",20002
"220","1437 OTIS ST NE","Washington","DC",20017
"221","144 UHLAND TER NE","Washington","DC",20002
"222","144 W ST NW","Washington","DC",20001
"223","1440 A ST NE","Washington","DC",20002
"224","1441 KEARNEY ST NE","Washington","DC",20017
"225","1443 G ST NE","Washington","DC",20002
"226","1449 HARVARD ST NW","Washington","DC",20009
"227","1466 OGDEN ST NW","Washington","DC",20010
"228","1476 HARVARD ST NW","Washington","DC",20009
"229","15 8TH ST NE","Washington","DC",20002
"230","15 EVARTS ST NE","Washington","DC",20002
"231","15 Q ST NW","Washington","DC",20001
"232","150 11TH ST NE","Washington","DC",20002
"233","1501 GALLATIN ST NW","Washington","DC",20011
"234","1503 CONSTITUTION AVE NE","Washington","DC",20002
"235","1506 SPRING PL NW","Washington","DC",20010
"236","1507 33RD ST NW","Washington","DC",20007
"237","1508 D ST NE","Washington","DC",20002
"238","1508 VARNUM ST NW","Washington","DC",20011
"239","1509 HAMLIN ST NE","Washington","DC",20017
"240","1510 D ST NE","Washington","DC",20002
"241","1510 MONROE ST NE","Washington","DC",20017
"242","1512 VAN BUREN ST NW","Washington","DC",20012
"243","1513 4TH ST NW","Washington","DC",20001
"244","1514 NEW JERSEY AVE NW","Washington","DC",20001
"245","1516 1ST ST NW","Washington","DC",20001
"246","1516 WEBSTER ST NW","Washington","DC",20011
"247","1518 6TH ST NW","Washington","DC",20001
"248","1518 CONSTITUTION AVE NE","Washington","DC",20002
"249","1518 POTOMAC AVE SE","Washington","DC",20003
"250","1521 29TH ST NW","Washington","DC",20007
"251","1521 A ST SE","Washington","DC",20003
"252","1523 1ST ST NW","Washington","DC",20001
"253","1523 INDEPENDENCE AVE SE","Washington","DC",20003
"254","1524 3RD ST NW","Washington","DC",20001
"255","1524 SPRING PL NW","Washington","DC",20010
"256","1525 MARION ST NW","Washington","DC",20001
"257","1525 MONROE ST NW","Washington","DC",20010
"258","1526 TRINIDAD AVE NE","Washington","DC",20002
"259","1528 GALES ST NE","Washington","DC",20002
"260","1530 15TH ST NW","Washington","DC",20005
"261","1530 EAST CAPITOL ST NE","Washington","DC",20003
"262","1531 GALES ST NE","Washington","DC",20002
"263","1533 EAST CAPITOL ST SE","Washington","DC",20003
"264","1535 5TH ST NW","Washington","DC",20001
"265","1535 NEWTON ST NE","Washington","DC",20017
"266","1541 T ST NW","Washington","DC",20009
"267","1542 44TH ST NW","Washington","DC",20007
"268","1600 C ST NE","Washington","DC",20002
"269","1608 LAWRENCE ST NE","Washington","DC",20018
"270","1608 MASSACHUSETTS AVE SE","Washington","DC",20003
"271","1608 TRINIDAD AVE NE","Washington","DC",20002
"272","1611 A ST NE","Washington","DC",20002
"273","1615 D ST SE","Washington","DC",20003
"274","1615 H ST SE","Washington","DC",20003
"275","1616 22ND ST NW","Washington","DC",20008
"276","1617 H ST SE","Washington","DC",20003
"277","1617 INDEPENDENCE AVE SE","Washington","DC",20003
"278","1617 NEW JERSEY AVE NW","Washington","DC",20001
"279","1617 WEBSTER ST NW","Washington","DC",20011
"280","1617 WEBSTER ST NW","Washington","DC",20011
"281","1618 CORCORAN ST NW","Washington","DC",20009
"282","1618 F ST NE","Washington","DC",20002
"283","1618 NEWTON ST NE","Washington","DC",20018
"284","1620 LAMONT ST NW","Washington","DC",20010
"285","1621 33RD ST NW","Washington","DC",20007
"286","1621 5TH ST NW","Washington","DC",20001
"287","1622 MASSACHUSETTS AVE SE","Washington","DC",20003
"288","1624 D ST SE","Washington","DC",20003
"289","1626 F ST NE","Washington","DC",20002
"290","1629 LANG PL NE","Washington","DC",20002
"291","1629 ROSEDALE ST NE","Washington","DC",20002
"292","163 RHODE ISLAND AVE NE","Washington","DC",20002
"293","1630 5TH ST NW","Washington","DC",20001
"294","1631 MADISON ST NW","Washington","DC",20011
"295","1632 ROSEDALE ST NE","Washington","DC",20002
"296","1636 ROSEDALE ST NE","Washington","DC",20002
"297","1637 LANG PL NE","Washington","DC",20002
"298","1642 NEWTON ST NW","Washington","DC",20010
"299","1644 L ST NE","Washington","DC",20002
"300","1645 31ST ST NW","Washington","DC",20007
"301","1647 MONTELLO AVE NE","Washington","DC",20002
"302","1654 GALES ST NE","Washington","DC",20002
"303","166 U ST NE","Washington","DC",20002
"304","1661 KRAMER ST NE","Washington","DC",20002
"305","1661 MONTELLO AVE NE","Washington","DC",20002
"306","1667 GALES ST NE","Washington","DC",20002
"307","1669 GALES ST NE","Washington","DC",20002
"308","167 U ST NE","Washington","DC",20002
"309","170 TODD PL NE","Washington","DC",20002
"310","1702 MONTELLO AVE NE","Washington","DC",20002
"311","1705 IRVING ST NW","Washington","DC",20010
"312","1706 3RD ST NE","Washington","DC",20002
"313","1706 D ST NE","Washington","DC",20002
"314","1708 C ST NE","Washington","DC",20002
"315","1710 3RD ST NE","Washington","DC",20002
"316","1711 NORTH CAPITOL ST NE","Washington","DC",20002
"317","1712 MONTELLO AVE NE","Washington","DC",20002
"318","1714 5TH ST NW","Washington","DC",20001
"319","1715 L ST NE","Washington","DC",20002
"320","1716 34TH ST NW","Washington","DC",20007
"321","1716 Q ST NW","Washington","DC",20009
"322","1717 EVARTS ST NE","Washington","DC",20018
"323","1718 M ST NE","Washington","DC",20002
"324","1719 LYMAN PL NE","Washington","DC",20002
"325","172 U ST NE","Washington","DC",20002
"326","1721 BAY ST SE","Washington","DC",20003
"327","1721 MONROE ST NE","Washington","DC",20018
"328","1722 2ND ST NW","Washington","DC",20001
"329","1722 2ND ST NW","Washington","DC",20001
"330","1728 MONTELLO AVE NE","Washington","DC",20002
"331","1729 LANG PL NE","Washington","DC",20002
"332","1731 LYMAN PL NE","Washington","DC",20002
"333","1732 LYMAN PL NE","Washington","DC",20002
"334","1733 D ST SE","Washington","DC",20003
"335","1735 SEATON ST NW","Washington","DC",20009
"336","1736 BAY ST SE","Washington","DC",20003
"337","1738 POTOMAC AVE SE","Washington","DC",20003
"338","1741 LYMAN PL NE","Washington","DC",20002
"339","1743 L ST NE","Washington","DC",20002
"340","1745 D ST SE","Washington","DC",20003
"341","1749 SWANN ST NW","Washington","DC",20009
"342","175 V ST NE","Washington","DC",20002
"343","1751 L ST NE","Washington","DC",20002
"344","1754 LYMAN PL NE","Washington","DC",20002
"345","1760 LANG PL NE","Washington","DC",20002
"346","1783 LYMAN PL NE","Washington","DC",20002
"347","18 7TH ST NE","Washington","DC",20002
"348","18 O ST NW","Washington","DC",20001
"349","1802 POTOMAC AVE SE","Washington","DC",20003
"350","1803 4TH ST NW","Washington","DC",20001
"351","1803 A ST SE","Washington","DC",20003
"352","1806 POTOMAC AVE SE","Washington","DC",20003
"353","1810 D ST SE","Washington","DC",20003
"354","1811 INDEPENDENCE AVE SE","Washington","DC",20003
"355","1812 L ST NE","Washington","DC",20002
"356","1813 MONROE ST NE","Washington","DC",20018
"357","1814 CORCORAN ST NE","Washington","DC",20002
"358","1814 INDEPENDENCE AVE SE","Washington","DC",20003
"359","1815 HAMLIN ST NE","Washington","DC",20018
"360","1815 OTIS ST NE","Washington","DC",20018
"361","1820 KALORAMA SQ NW","Washington","DC",20008
"362","1821 L ST NE","Washington","DC",20002
"363","1826 MASSACHUSETTS AVE SE","Washington","DC",20003
"364","1834 LAMONT ST NW","Washington","DC",20010
"365","1835 A ST SE","Washington","DC",20003
"366","1835 KENDALL ST NE","Washington","DC",20002
"367","1835 L ST NE","Washington","DC",20002
"368","1835 MONROE ST NW","Washington","DC",20010
"369","1839 ONTARIO PL NW","Washington","DC",20009
"370","1840 3RD ST NE","Washington","DC",20002
"371","1842 L ST NE","Washington","DC",20002
"372","1848 8TH ST NW","Washington","DC",20001
"373","1851 NEWTON ST NW","Washington","DC",20010
"374","1855 UPSHUR ST NW","Washington","DC",20011
"375","1881 INGLESIDE TER NW","Washington","DC",20010
"376","1903 S ST NW","Washington","DC",20009
"377","1905 D ST NE","Washington","DC",20002
"378","1908 2ND ST NE","Washington","DC",20002
"379","1908 ROSEDALE ST NE","Washington","DC",20002
"380","1908 ROSEDALE ST NE","Washington","DC",20002
"381","1910 2ND ST NE","Washington","DC",20002
"382","1910 4TH ST NW","Washington","DC",20001
"383","1911 17TH ST NW","Washington","DC",20009
"384","1916 ROSEDALE ST NE","Washington","DC",20002
"385","1920 KEARNY ST NE","Washington","DC",20018
"386","1921 BENNETT PL NE","Washington","DC",20002
"387","1923 1ST ST NE","Washington","DC",20002
"388","1924 1ST ST NW","Washington","DC",20001
"389","1927 SHEPHERD ST NE","Washington","DC",20018
"390","1928 BENNETT PL NE","Washington","DC",20002
"391","1928 E ST NE","Washington","DC",20002
"392","1929 OTIS ST NE","Washington","DC",20018
"393","1932 2ND ST NE","Washington","DC",20002
"394","1933 LINCOLN RD NE","Washington","DC",20002
"395","1935 4TH ST NE","Washington","DC",20002
"396","1935 BENNETT PL NE","Washington","DC",20002
"397","1936 4TH ST NE","Washington","DC",20002
"398","20 O ST NW","Washington","DC",20001
"399","2003 KEARNY ST NE","Washington","DC",20018
"400","2008 HAMLIN ST NE","Washington","DC",20018
"401","2009 LAWRENCE ST NE","Washington","DC",20018
"402","201 ASCOT PL NE","Washington","DC",20002
"403","201 JEFFERSON ST NW","Washington","DC",20011
"404","201 JEFFERSON ST NW","Washington","DC",20011
"405","201 JEFFERSON ST NW","Washington","DC",20011
"406","2010 C ST NE","Washington","DC",20002
"407","2013 KEARNY ST NE","Washington","DC",20018
"408","2016 PERRY ST NE","Washington","DC",20018
"409","2017 M ST NE","Washington","DC",20002
"410","2018 LAWRENCE ST NE","Washington","DC",20018
"411","2020 4TH ST NE","Washington","DC",20002
"412","2026 KLINGLE RD NW","Washington","DC",20010
"413","2027 3RD ST NE","Washington","DC",20002
"414","203 16TH ST SE","Washington","DC",20003
"415","203 S ST NE","Washington","DC",20002
"416","2034 1ST ST NW","Washington","DC",20001
"417","2035 GALES ST NE","Washington","DC",20002
"418","204 ADAMS ST NE","Washington","DC",20002
"419","204 BATES ST NW","Washington","DC",20001
"420","208 5TH ST SE","Washington","DC",20003
"421","208 N ST NW","Washington","DC",20001
"422","208 N ST NW","Washington","DC",20001
"423","210 GALLATIN ST NW","Washington","DC",20011
"424","210 ONEIDA ST NE","Washington","DC",20011
"425","210 S ST NW","Washington","DC",20001
"426","2100 2ND ST NW","Washington","DC",20001
"427","2115 3RD ST NE","Washington","DC",20002
"428","212 OKLAHOMA AVE NE","Washington","DC",20002
"429","2126 R ST NW","Washington","DC",20008
"430","2130 2ND ST NW","Washington","DC",20001
"431","2130 BANCROFT PL NW","Washington","DC",20008
"432","214 BRYANT ST NE","Washington","DC",20002
"433","216 VARNUM ST NE","Washington","DC",20011
"434","217 FARRAGUT ST NW","Washington","DC",20011
"435","218 F ST NE","Washington","DC",20002
"436","219 14TH ST SE","Washington","DC",20003
"437","219 R ST NW","Washington","DC",20001
"438","22 NICHOLSON ST NW","Washington","DC",20011
"439","220 RANDOLPH PL NE","Washington","DC",20002
"440","220 RANDOLPH PL NE","Washington","DC",20002
"441","2200 R ST NW","Washington","DC",20008
"442","2200 TAYLOR ST NE","Washington","DC",20018
"443","2201 TAYLOR ST NE","Washington","DC",20018
"444","2204 DOUGLAS ST NE","Washington","DC",20018
"445","2204 DOUGLAS ST NE","Washington","DC",20018
"446","2206 DECATUR PL NW","Washington","DC",20008
"447","221 R ST NW","Washington","DC",20001
"448","2213 16TH ST NE","Washington","DC",20018
"449","2213 DOUGLAS ST NE","Washington","DC",20018
"450","2218 HALL PL NW","Washington","DC",20007
"451","222 14TH PL NE","Washington","DC",20002
"452","2220 38TH ST NW","Washington","DC",20007
"453","2226 13TH ST NE","Washington","DC",20018
"454","2230 16TH ST NE","Washington","DC",20018
"455","2232 QUINCY ST NE","Washington","DC",20018
"456","2242 15TH ST NE","Washington","DC",20018
"457","2243 OTIS ST NE","Washington","DC",20018
"458","2245 13TH ST NE","Washington","DC",20018
"459","2246 13TH ST NE","Washington","DC",20018
"460","225 18TH ST SE","Washington","DC",20003
"461","2254 SUDBURY RD NW","Washington","DC",20012
"462","226 15TH ST NE","Washington","DC",20002
"463","226 FLORIDA AVE NW","Washington","DC",20001
"464","226 RANDOLPH PL NE","Washington","DC",20002
"465","226 S ST NE","Washington","DC",20002
"466","226 SEATON PL NE","Washington","DC",20002
"467","227 BRYANT ST NE","Washington","DC",20002
"468","227 CROMWELL TER NE","Washington","DC",20002
"469","228 15TH ST NE","Washington","DC",20002
"470","229 12TH ST SE","Washington","DC",20003
"471","23 Q ST NE","Washington","DC",20002
"472","230 14TH PL NE","Washington","DC",20002
"473","2309 3RD ST NE","Washington","DC",20002
"474","231 ROCK CREEK CHURCH RD NW","Washington","DC",20011
"475","2319 NORTH CAPITOL ST NE","Washington","DC",20002
"476","2319 SHERMAN AVE NW","Washington","DC",20001
"477","2319 SHERMAN AVE NW","Washington","DC",20001
"478","2328 MASSACHUSETTS AVE NW","Washington","DC",20008
"479","233 TENNESSEE AVE NE","Washington","DC",20002
"480","2332 19TH ST NW","Washington","DC",20009
"481","2333 3RD ST NE","Washington","DC",20002
"482","2334 19TH ST NW","Washington","DC",20009
"483","2338 KING PL NW","Washington","DC",20007
"484","234 F ST NE","Washington","DC",20002
"485","236 NICHOLSON ST NE","Washington","DC",20011
"486","236 WARREN ST NE","Washington","DC",20002
"487","238 MADISON ST NW","Washington","DC",20011
"488","239 16TH ST SE","Washington","DC",20003
"489","239 17TH ST SE","Washington","DC",20003
"490","24 GALLATIN ST NW","Washington","DC",20011
"491","2403 3RD ST NE","Washington","DC",20002
"492","2405 TRACY PL NW","Washington","DC",20008
"493","2407 3RD ST NE","Washington","DC",20002
"494","2408 2ND ST NE","Washington","DC",20002
"495","2408 EVARTS ST NE","Washington","DC",20018
"496","241 16TH ST SE","Washington","DC",20003
"497","241 K ST NE","Washington","DC",20002
"498","2410 2ND ST NE","Washington","DC",20002
"499","2416 3RD ST NE","Washington","DC",20002
"500","2420 4TH ST NE","Washington","DC",20002
"501","2421 FRANKLIN ST NE","Washington","DC",20018
"502","2425 PERRY ST NE","Washington","DC",20018
"503","2428 4TH ST NE","Washington","DC",20002
"504","2429 3RD ST NE","Washington","DC",20002
"505","243 QUACKENBOS ST NE","Washington","DC",20011
"506","2436 2ND ST NE","Washington","DC",20002
"507","2449 TRACY PL NW","Washington","DC",20008
"508","25 17TH ST SE","Washington","DC",20003
"509","25 Q ST NW","Washington","DC",20001
"510","25 TODD PL NE","Washington","DC",20002
"511","2501 HAMLIN ST NE","Washington","DC",20018
"512","2506 PERRY ST NE","Washington","DC",20018
"513","2510 FOXHALL RD NW","Washington","DC",20007
"514","2512 E ST NE","Washington","DC",20002
"515","2520 12TH ST NW","Washington","DC",20009
"516","2525 NORTH CAPITOL ST NE","Washington","DC",20002
"517","2531 11TH ST NW","Washington","DC",20001
"518","26 HANOVER PL NW","Washington","DC",20001
"519","26 QUINCY PL NW","Washington","DC",20001
"520","260 GALLATIN ST NW","Washington","DC",20011
"521","2605 31ST ST NW","Washington","DC",20008
"522","2615 RANDOLPH ST NE","Washington","DC",20018
"523","2615 SHERMAN AVE NW","Washington","DC",20001
"524","2630 BRENTWOOD RD NE","Washington","DC",20018
"525","2641 MYRTLE AVE NE","Washington","DC",20018
"526","27 SHERMAN CIR NW","Washington","DC",20011
"527","2703 NORTH CAPITOL ST NE","Washington","DC",20002
"528","2706 12TH ST NE","Washington","DC",20018
"529","2706 BRENTWOOD RD NE","Washington","DC",20018
"530","2707 18TH ST NE","Washington","DC",20018
"531","2708 O ST NW","Washington","DC",20007
"532","2708 WOODLEY PL NW","Washington","DC",20008
"533","2711 NORTH CAPITOL ST NE","Washington","DC",20002
"534","2718 HAMLIN ST NE","Washington","DC",20018
"535","2800 26TH ST NE","Washington","DC",20018
"536","2803 FRANKLIN ST NE","Washington","DC",20018
"537","2805 MYRTLE AVE NE","Washington","DC",20018
"538","2810 NEWTON ST NE","Washington","DC",20018
"539","2814 13TH ST NW","Washington","DC",20009
"540","2819 12TH ST NE","Washington","DC",20017
"541","2819 38TH ST NW","Washington","DC",20007
"542","2821 12TH ST NE","Washington","DC",20017
"543","2833 27TH ST NE","Washington","DC",20018
"544","2833 27TH ST NE","Washington","DC",20018
"545","2837 MYRTLE AVE NE","Washington","DC",20018
"546","2841 MYRTLE AVE NE","Washington","DC",20018
"547","2849 MCGILL TER NW","Washington","DC",20008
"548","2867 TILDEN ST NW","Washington","DC",20008
"549","29 17TH ST SE","Washington","DC",20003
"550","2907 DUMBARTON ST NW","Washington","DC",20007
"551","2913 26TH ST NE","Washington","DC",20018
"552","2914 10TH ST NE","Washington","DC",20017
"553","2931 SOUTH DAKOTA AVE NE","Washington","DC",20018
"554","2946 CARLTON AVE NE","Washington","DC",20018
"555","2952 MILLS AVE NE","Washington","DC",20018
"556","2966 CARLTON AVE NE","Washington","DC",20018
"557","30 9TH ST SE","Washington","DC",20003
"558","30 QUINCY PL NE","Washington","DC",20002
"559","3000 20TH ST NE","Washington","DC",20018
"560","3001 CATHEDRAL AVE NW","Washington","DC",20008
"561","3001 YOST PL NE","Washington","DC",20018
"562","3002 FRANKLIN ST NE","Washington","DC",20018
"563","3008 12TH ST NE","Washington","DC",20017
"564","3010 DUMBARTON ST NW","Washington","DC",20007
"565","3011 DUMBARTON ST NW","Washington","DC",20007
"566","3011 DUMBARTON ST NW","Washington","DC",20007
"567","3017 26TH ST NE","Washington","DC",20018
"568","3022 VISTA ST NE","Washington","DC",20018
"569","3024 CAMBRIDGE PL NW","Washington","DC",20007
"570","3025 YOST PL NE","Washington","DC",20018
"571","3028 SHERMAN AVE NW","Washington","DC",20001
"572","303 ADAMS ST NE","Washington","DC",20002
"573","303 KENTUCKY AVE SE","Washington","DC",20003
"574","3033 SHERMAN AVE NW","Washington","DC",20001
"575","3037 VISTA ST NE","Washington","DC",20018
"576","304 12TH ST NE","Washington","DC",20002
"577","3040 CLINTON ST NE","Washington","DC",20018
"578","3040 THAYER ST NE","Washington","DC",20018
"579","3043 P ST NW","Washington","DC",20007
"580","3048 VISTA ST NE","Washington","DC",20018
"581","3049 CLINTON ST NE","Washington","DC",20018
"582","305 E ST NE","Washington","DC",20002
"583","3053 Q ST NW","Washington","DC",20007
"584","306 EMERSON ST NW","Washington","DC",20011
"585","306 QUACKENBOS ST NW","Washington","DC",20011
"586","3063 CLINTON ST NE","Washington","DC",20018
"587","308 EMERSON ST NW","Washington","DC",20011
"588","309 SEATON PL NE","Washington","DC",20002
"589","31 T ST NW","Washington","DC",20001
"590","310 16TH ST NE","Washington","DC",20002
"591","310 GALLATIN ST NW","Washington","DC",20011
"592","3102 P ST NW","Washington","DC",20007
"593","3104 CHESTNUT ST NE","Washington","DC",20018
"594","3104 MONROE ST NE","Washington","DC",20018
"595","3106 N ST NW","Washington","DC",20007
"596","3108 16TH ST NW","Washington","DC",20010
"597","3109 17TH ST NE","Washington","DC",20018
"598","311 16TH ST SE","Washington","DC",20003
"599","3116 PARK PL NW","Washington","DC",20010
"600","312 BRYANT ST NE","Washington","DC",20002
"601","312 TAYLOR ST NW","Washington","DC",20011
"602","3121 18TH ST NE","Washington","DC",20018
"603","3127 DUMBARTON ST NW","Washington","DC",20007
"604","3136 17TH ST NW","Washington","DC",20010
"605","314 16TH ST SE","Washington","DC",20003
"606","314 MISSOURI AVE NW","Washington","DC",20011
"607","3140 DUMBARTON ST NW","Washington","DC",20007
"608","3141 O ST NW","Washington","DC",20007
"609","316 GALLATIN ST NW","Washington","DC",20011
"610","316 KENTUCKY AVE SE","Washington","DC",20003
"611","316 WEBSTER ST NW","Washington","DC",20011
"612","317 MADISON ST NW","Washington","DC",20011
"613","317 TODD PL NE","Washington","DC",20002
"614","318 16TH ST SE","Washington","DC",20003
"615","318 19TH ST NE","Washington","DC",20002
"616","318 BRYANT ST NE","Washington","DC",20002
"617","320 MISSOURI AVE NW","Washington","DC",20011
"618","320 U ST NW","Washington","DC",20001
"619","3200 HIGHLAND PL NW","Washington","DC",20008
"620","3206 PARK PL NW","Washington","DC",20010
"621","3207 CHESTNUT ST NE","Washington","DC",20018
"622","321 MADISON ST NW","Washington","DC",20011
"623","321 U ST NE","Washington","DC",20002
"624","3214 10TH ST NE","Washington","DC",20017
"625","3217 WARDER ST NW","Washington","DC",20010
"626","3219 CHESTNUT ST NE","Washington","DC",20018
"627","322 GALLATIN ST NW","Washington","DC",20011
"628","3223 VOLTA PL NW","Washington","DC",20007
"629","3229 FORT LINCOLN DR NE","Washington","DC",20018
"630","323 ELM ST NW","Washington","DC",20001
"631","3234 WARDER ST NW","Washington","DC",20010
"632","324 16TH ST SE","Washington","DC",20003
"633","3247 P ST NW","Washington","DC",20007
"634","326 TENNESSEE AVE NE","Washington","DC",20002
"635","3278 THEODORE R HAGANS DR NE","Washington","DC",20018
"636","328 12TH ST SE","Washington","DC",20003
"637","328 SHEPHERD ST NW","Washington","DC",20011
"638","329 LONGFELLOW ST NW","Washington","DC",20011
"639","33 LONGFELLOW ST NW","Washington","DC",20011
"640","33 S ST NW","Washington","DC",20001
"641","33 W ST NW","Washington","DC",20001
"642","330 19TH ST NE","Washington","DC",20002
"643","330 U ST NW","Washington","DC",20001
"644","3300 WARDER ST NW","Washington","DC",20010
"645","3305 22ND ST NE","Washington","DC",20018
"646","3306 PORTER ST NW","Washington","DC",20008
"647","331 18TH PL NE","Washington","DC",20002
"648","3310 N ST NW","Washington","DC",20007
"649","3310 P ST NW","Washington","DC",20007
"650","3312 NEWARK ST NW","Washington","DC",20008
"651","3314 CATHEDRAL AVE NW","Washington","DC",20008
"652","332 20TH ST NE","Washington","DC",20002
"653","3325 PROSPECT ST NW","Washington","DC",20007
"654","333 OGLETHORPE ST NE","Washington","DC",20011
"655","3337 RESERVOIR RD NW","Washington","DC",20007
"656","335 18TH ST NE","Washington","DC",20002
"657","335 KENTUCKY AVE SE","Washington","DC",20003
"658","336 18TH ST NE","Washington","DC",20002
"659","339 18TH ST NE","Washington","DC",20002
"660","34 SHERMAN CIR NW","Washington","DC",20011
"661","3404 22ND ST NE","Washington","DC",20018
"662","3404 GARRISON ST NW","Washington","DC",20008
"663","3410 24TH ST NE","Washington","DC",20018
"664","3411 HOLMEAD PL NW","Washington","DC",20010
"665","3417 MOUNT PLEASANT ST NW","Washington","DC",20010
"666","343 TENNESSEE AVE NE","Washington","DC",20002
"667","347 KENTUCKY AVE SE","Washington","DC",20003
"668","35 SEATON PL NW","Washington","DC",20001
"669","3503 10TH ST NE","Washington","DC",20017
"670","3508 18TH ST NE","Washington","DC",20018
"671","3509 17TH ST NE","Washington","DC",20018
"672","3511 ALBEMARLE ST NW","Washington","DC",20008
"673","3518 PARK PL NW","Washington","DC",20010
"674","3520 EDMUNDS ST NW","Washington","DC",20007
"675","3525 NEW HAMPSHIRE AVE NW","Washington","DC",20010
"676","3530 WHITEHAVEN PKWY NW","Washington","DC",20007
"677","3535 HERTFORD PL NW","Washington","DC",20010
"678","3540 WINFIELD LN NW","Washington","DC",20007
"679","3541 HOLMEAD PL NW","Washington","DC",20010
"680","3543 HERTFORD PL NW","Washington","DC",20010
"681","36 18TH ST SE","Washington","DC",20003
"682","3614 FULTON ST NW","Washington","DC",20007
"683","3615 11TH ST NW","Washington","DC",20010
"684","3631 TILDEN ST NW","Washington","DC",20008
"685","3633 WINFIELD LN NW","Washington","DC",20007
"686","3642 PARK PL NW","Washington","DC",20010
"687","3661 13TH ST NW","Washington","DC",20010
"688","3706 24TH ST NE","Washington","DC",20018
"689","3709 26TH ST NE","Washington","DC",20018
"690","3710 24TH ST NE","Washington","DC",20018
"691","3712 22ND ST NE","Washington","DC",20018
"692","3721 18TH ST NE","Washington","DC",20018
"693","3731 BENTON ST NW","Washington","DC",20007
"694","38 LONGFELLOW ST NW","Washington","DC",20011
"695","38 MILMARSON PL NW","Washington","DC",20011
"696","3807 KANSAS AVE NW","Washington","DC",20011
"697","3809 7TH ST NW","Washington","DC",20011
"698","3812 25TH PL NE","Washington","DC",20018
"699","3815 24TH ST NE","Washington","DC",20018
"700","3817 KANSAS AVE NW","Washington","DC",20011
"701","3820 25TH PL NE","Washington","DC",20018
"702","3831 GARFIELD ST NW","Washington","DC",20007
"703","3850 BEECHER ST NW","Washington","DC",20007
"704","39 V ST NE","Washington","DC",20002
"705","3905 17TH PL NE","Washington","DC",20018
"706","3905 20TH ST NE","Washington","DC",20018
"707","3906 21ST ST NE","Washington","DC",20018
"708","3912 5TH ST NW","Washington","DC",20011
"709","3914 NEW HAMPSHIRE AVE NW","Washington","DC",20011
"710","3916 13TH ST NW","Washington","DC",20011
"711","3916 5TH ST NW","Washington","DC",20011
"712","40 ADAMS ST NW","Washington","DC",20001
"713","400 G ST NE","Washington","DC",20002
"714","4000 24TH ST NE","Washington","DC",20018
"715","4008 21ST ST NE","Washington","DC",20018
"716","401 MADISON ST NE","Washington","DC",20011
"717","4015 NEW HAMPSHIRE AVE NW","Washington","DC",20011
"718","4019 14TH ST NW","Washington","DC",20011
"719","4019 5TH ST NW","Washington","DC",20011
"720","4019 SOUTH DAKOTA AVE NE","Washington","DC",20018
"721","4028 24TH ST NE","Washington","DC",20018
"722","403 R ST NW","Washington","DC",20001
"723","403 UPSHUR ST NW","Washington","DC",20011
"724","406 TENNESSEE AVE NE","Washington","DC",20002
"725","407 DELAFIELD PL NW","Washington","DC",20011
"726","407 KENTUCKY AVE SE","Washington","DC",20003
"727","408 QUACKENBOS ST NE","Washington","DC",20011
"728","409 MISSOURI AVE NW","Washington","DC",20011
"729","410 E ST SE","Washington","DC",20003
"730","4100 5TH ST NW","Washington","DC",20011
"731","4103 13TH ST NE","Washington","DC",20017
"732","4103 3RD ST NW","Washington","DC",20011
"733","4105 12TH ST NE","Washington","DC",20017
"734","411 BUCHANAN ST NW","Washington","DC",20011
"735","411 M ST NW","Washington","DC",20001
"736","411 OGLETHORPE ST NW","Washington","DC",20011
"737","411 RITTENHOUSE ST NW","Washington","DC",20011
"738","4111 7TH ST NW","Washington","DC",20011
"739","4116 18TH PL NE","Washington","DC",20018
"740","413 FARRAGUT ST NW","Washington","DC",20011
"741","4131 18TH ST NE","Washington","DC",20018
"742","4132 ARKANSAS AVE NW","Washington","DC",20011
"743","414 DELAFIELD PL NW","Washington","DC",20011
"744","4142 22ND ST NE","Washington","DC",20018
"745","415 UPSHUR ST NW","Washington","DC",20011
"746","417 COLUMBIA RD NW","Washington","DC",20001
"747","417 MADISON ST NE","Washington","DC",20011
"748","417 UPSHUR ST NW","Washington","DC",20011
"749","418 ELM ST NW","Washington","DC",20001
"750","419 ELM ST NW","Washington","DC",20001
"751","419 UPSHUR ST NW","Washington","DC",20011
"752","419 UPSHUR ST NW","Washington","DC",20011
"753","42 QUINCY PL NE","Washington","DC",20002
"754","420 LURAY PL NW","Washington","DC",20010
"755","420 RIGGS RD NE","Washington","DC",20011
"756","4201 4TH ST NW","Washington","DC",20011
"757","4203 12TH ST NE","Washington","DC",20017
"758","4204 13TH PL NE","Washington","DC",20017
"759","4207 NEW HAMPSHIRE AVE NW","Washington","DC",20011
"760","4207 NEW HAMPSHIRE AVE NW","Washington","DC",20011
"761","4209 ILLINOIS AVE NW","Washington","DC",20011
"762","421 11TH ST NE","Washington","DC",20002
"763","4222 MATHEWSON DR NW","Washington","DC",20011
"764","423 MARIETTA PL NW","Washington","DC",20011
"765","424 ALLISON ST NW","Washington","DC",20011
"766","425 15TH ST SE","Washington","DC",20003
"767","425 20TH ST NE","Washington","DC",20002
"768","425 MARIETTA PL NW","Washington","DC",20011
"769","427 12TH ST SE","Washington","DC",20003
"770","428 KENYON ST NW","Washington","DC",20010
"771","429 INGRAHAM ST NW","Washington","DC",20011
"772","429 MANOR PL NW","Washington","DC",20010
"773","429 RITTENHOUSE ST NW","Washington","DC",20011
"774","43 SHERIDAN ST NE","Washington","DC",20011
"775","43 UNDERWOOD ST NW","Washington","DC",20012
"776","430 10TH ST NE","Washington","DC",20002
"777","4307 3RD ST NW","Washington","DC",20011
"778","4313 4TH ST NW","Washington","DC",20011
"779","4317 12TH ST NE","Washington","DC",20017
"780","432 RANDOLPH ST NW","Washington","DC",20011
"781","4325 20TH ST NE","Washington","DC",20018
"782","4327 8TH ST NW","Washington","DC",20011
"783","4330 BLAGDEN AVE NW","Washington","DC",20011
"784","434 RANDOLPH ST NW","Washington","DC",20011
"785","4347 16TH ST NE","Washington","DC",20017
"786","4348 BLAGDEN AVE NW","Washington","DC",20011
"787","4352 BLAGDEN AVE NW","Washington","DC",20011
"788","436 EMERSON ST NW","Washington","DC",20011
"789","440 15TH ST NE","Washington","DC",20002
"790","440 N ST NW","Washington","DC",20001
"791","4402 VOLTA PL NW","Washington","DC",20007
"792","4404 15TH ST NW","Washington","DC",20011
"793","4412 3RD ST NW","Washington","DC",20011
"794","4413 COLORADO AVE NW","Washington","DC",20011
"795","4414 14TH ST NW","Washington","DC",20011
"796","4416 EDMUNDS ST NW","Washington","DC",20007
"797","442 15TH ST NE","Washington","DC",20002
"798","4421 9TH ST NW","Washington","DC",20011
"799","443 LAMONT ST NW","Washington","DC",20010
"800","445 15TH ST NE","Washington","DC",20002
"801","445 JEFFERSON ST NW","Washington","DC",20011
"802","445 LAMONT ST NW","Washington","DC",20010
"803","4450 DEXTER ST NW","Washington","DC",20007
"804","448 20TH ST NE","Washington","DC",20002
"805","449 NEWTON PL NW","Washington","DC",20010
"806","45 TUCKERMAN ST NW","Washington","DC",20011
"807","4507 ARGYLE TER NW","Washington","DC",20011
"808","4512 ARGYLE TER NW","Washington","DC",20011
"809","4516 8TH ST NW","Washington","DC",20011
"810","4516 8TH ST NW","Washington","DC",20011
"811","4516 BLAGDEN AVE NW","Washington","DC",20011
"812","4520 4TH ST NW","Washington","DC",20011
"813","4523 15TH ST NW","Washington","DC",20011
"814","4525 ARKANSAS AVE NW","Washington","DC",20011
"815","453 IRVING ST NW","Washington","DC",20010
"816","4535 WESTHALL DR NW","Washington","DC",20007
"817","4539 WESTHALL DR NW","Washington","DC",20007
"818","455 Q ST NW","Washington","DC",20001
"819","4564 ARGYLE TER NW","Washington","DC",20011
"820","46 FRANKLIN ST NE","Washington","DC",20002
"821","4613 SARGENT RD NE","Washington","DC",20017
"822","4616 NEW HAMPSHIRE AVE NW","Washington","DC",20011
"823","4620 4TH ST NW","Washington","DC",20011
"824","4624 9TH ST NW","Washington","DC",20011
"825","4625 12TH ST NE","Washington","DC",20017
"826","4626 4TH ST NW","Washington","DC",20011
"827","4640 GARFIELD ST NW","Washington","DC",20007
"828","4707 SARGENT RD NE","Washington","DC",20017
"829","4710 8TH ST NW","Washington","DC",20011
"830","4713 KANSAS AVE NW","Washington","DC",20011
"831","4723 4TH ST NW","Washington","DC",20011
"832","4754 6TH PL NE","Washington","DC",20017
"833","4808 7TH ST NW","Washington","DC",20011
"834","4808 ILLINOIS AVE NW","Washington","DC",20011
"835","4834 7TH ST NW","Washington","DC",20011
"836","4842 EASTERN AVE NE","Washington","DC",20017
"837","4845 ILLINOIS AVE NW","Washington","DC",20011
"838","4860 QUEENS CHAPEL TER NE","Washington","DC",20017
"839","4905 9TH ST NW","Washington","DC",20011
"840","4915 ILLINOIS AVE NW","Washington","DC",20011
"841","4922 7TH ST NW","Washington","DC",20011
"842","4924 3RD ST NW","Washington","DC",20011
"843","4927 7TH PL NE","Washington","DC",20017
"844","4934 1ST ST NW","Washington","DC",20011
"845","4942 11TH ST NE","Washington","DC",20017
"846","5 V ST NW","Washington","DC",20001
"847","5008 7TH ST NW","Washington","DC",20011
"848","5008 7TH ST NW","Washington","DC",20011
"849","5010 4TH ST NW","Washington","DC",20011
"850","5014 5TH ST NW","Washington","DC",20011
"851","5014 ARKANSAS AVE NW","Washington","DC",20011
"852","5015 9TH ST NW","Washington","DC",20011
"853","5017 9TH ST NW","Washington","DC",20011
"854","5018 ILLINOIS AVE NW","Washington","DC",20011
"855","5018 SARGENT RD NE","Washington","DC",20017
"856","502 RITTENHOUSE ST NW","Washington","DC",20011
"857","5020 5TH ST NW","Washington","DC",20011
"858","5020 6TH PL NE","Washington","DC",20017
"859","5023 7TH PL NW","Washington","DC",20011
"860","5028 SARGENT RD NE","Washington","DC",20017
"861","5030 8TH ST NW","Washington","DC",20011
"862","5030 SARGENT RD NE","Washington","DC",20017
"863","5035 SARGENT RD NE","Washington","DC",20017
"864","5037 13TH ST NE","Washington","DC",20017
"865","5046 12TH ST NE","Washington","DC",20017
"866","506 FERN PL NW","Washington","DC",20012
"867","506 M ST NE","Washington","DC",20002
"868","509 PEABODY ST NE","Washington","DC",20011
"869","509 SOMERSET PL NW","Washington","DC",20011
"870","51 FLORIDA AVE NW","Washington","DC",20001
"871","51 FRANKLIN ST NE","Washington","DC",20002
"872","51 GIRARD ST NE","Washington","DC",20002
"873","5102 7TH ST NW","Washington","DC",20011
"874","5106 KANSAS AVE NW","Washington","DC",20011
"875","5106 NEW HAMPSHIRE AVE NW","Washington","DC",20011
"876","5107 12TH ST NE","Washington","DC",20011
"877","5107 8TH ST NW","Washington","DC",20011
"878","5109 ILLINOIS AVE NW","Washington","DC",20011
"879","5113 ILLINOIS AVE NW","Washington","DC",20011
"880","5115 8TH ST NW","Washington","DC",20011
"881","512 LAMONT ST NW","Washington","DC",20010
"882","5123 7TH ST NW","Washington","DC",20011
"883","5125 3RD ST NW","Washington","DC",20011
"884","513 MONTANA AVE NE","Washington","DC",20017
"885","514 14TH ST SE","Washington","DC",20003
"886","514 25TH PL NE","Washington","DC",20002
"887","516 PARK RD NW","Washington","DC",20010
"888","517 FERN PL NW","Washington","DC",20012
"889","518 14TH ST NE","Washington","DC",20002
"890","518 RITTENHOUSE ST NW","Washington","DC",20011
"891","519 K ST NE","Washington","DC",20002
"892","519 K ST NE","Washington","DC",20002
"893","5205 2ND ST NW","Washington","DC",20011
"894","5206 14TH ST NW","Washington","DC",20011
"895","521 LONGFELLOW ST NW","Washington","DC",20011
"896","5210 ILLINOIS AVE NW","Washington","DC",20011
"897","5217 KANSAS AVE NW","Washington","DC",20011
"898","5219 NEW HAMPSHIRE AVE NW","Washington","DC",20011
"899","522 21ST ST NE","Washington","DC",20002
"900","5223 NEW HAMPSHIRE AVE NW","Washington","DC",20011
"901","5227 5TH ST NW","Washington","DC",20011
"902","5227 NEW HAMPSHIRE AVE NW","Washington","DC",20011
"903","523 TUCKERMAN ST NW","Washington","DC",20011
"904","5232 7TH ST NW","Washington","DC",20011
"905","5237 5TH ST NW","Washington","DC",20011
"906","524 EDGEWOOD ST NE","Washington","DC",20017
"907","524 PARK RD NW","Washington","DC",20010
"908","525 CRITTENDEN ST NW","Washington","DC",20011
"909","525 INGRAHAM ST NW","Washington","DC",20011
"910","525 PEABODY ST NE","Washington","DC",20011
"911","526 SHERIDAN ST NW","Washington","DC",20011
"912","527 KENNEDY ST NW","Washington","DC",20011
"913","527 OGLETHORPE ST NW","Washington","DC",20011
"914","53 P ST NW","Washington","DC",20001
"915","53 W ST NW","Washington","DC",20001
"916","530 QUINTANA PL NW","Washington","DC",20011
"917","5301 4TH ST NW","Washington","DC",20011
"918","5303 5TH ST NW","Washington","DC",20011
"919","5304 5TH ST NW","Washington","DC",20011
"920","531 RANDOLPH ST NW","Washington","DC",20011
"921","5310 7TH ST NW","Washington","DC",20011
"922","5311 5TH ST NW","Washington","DC",20011
"923","5314 7TH ST NW","Washington","DC",20011
"924","5316 KANSAS AVE NW","Washington","DC",20011
"925","5317 5TH ST NW","Washington","DC",20011
"926","5318 2ND ST NW","Washington","DC",20011
"927","5325 5TH ST NW","Washington","DC",20011
"928","5328 5TH ST NW","Washington","DC",20011
"929","5329 ILLINOIS AVE NW","Washington","DC",20011
"930","5348 CHILLUM PL NE","Washington","DC",20011
"931","535 23RD PL NE","Washington","DC",20002
"932","538 11TH ST SE","Washington","DC",20003
"933","538 NEWTON PL NW","Washington","DC",20010
"934","539 SHEPHERD ST NW","Washington","DC",20011
"935","54 FARRAGUT PL NW","Washington","DC",20011
"936","5400 4TH ST NW","Washington","DC",20011
"937","5402 9TH ST NW","Washington","DC",20011
"938","5409 ILLINOIS AVE NW","Washington","DC",20011
"939","5411 ILLINOIS AVE NW","Washington","DC",20011
"940","5416 7TH ST NW","Washington","DC",20011
"941","5418 8TH ST NW","Washington","DC",20011
"942","5423 4TH ST NW","Washington","DC",20011
"943","5504 8TH ST NW","Washington","DC",20011
"944","5507 8TH ST NW","Washington","DC",20011
"945","5509 4TH ST NW","Washington","DC",20011
"946","5511 2ND ST NW","Washington","DC",20011
"947","5512 9TH ST NW","Washington","DC",20011
"948","5513 13TH ST NW","Washington","DC",20011
"949","5515 BLAIR RD NE","Washington","DC",20011
"950","5519 4TH ST NW","Washington","DC",20011
"951","5521 13TH ST NW","Washington","DC",20011
"952","5521 KANSAS AVE NW","Washington","DC",20011
"953","5527 KANSAS AVE NW","Washington","DC",20011
"954","56 GIRARD ST NE","Washington","DC",20002
"955","560 INGRAHAM ST NE","Washington","DC",20011
"956","5610 5TH ST NW","Washington","DC",20011
"957","5614 EASTERN AVE NE","Washington","DC",20011
"958","5614 KANSAS AVE NW","Washington","DC",20011
"959","5619 COLORADO AVE NW","Washington","DC",20011
"960","562 PEABODY ST NW","Washington","DC",20011
"961","566 23RD PL NE","Washington","DC",20002
"962","5700 NORTH CAPITOL ST NW","Washington","DC",20011
"963","5703 2ND ST NE","Washington","DC",20011
"964","5712 3RD PL NW","Washington","DC",20011
"965","5713 5TH ST NE","Washington","DC",20011
"966","5720 6TH ST NW","Washington","DC",20011
"967","5728 3RD ST NW","Washington","DC",20011
"968","5730 8TH ST NW","Washington","DC",20011
"969","58 Q ST NE","Washington","DC",20002
"970","5801 4TH ST NW","Washington","DC",20011
"971","5804 4TH ST NW","Washington","DC",20011
"972","5804 8TH ST NW","Washington","DC",20011
"973","5812 5TH ST NW","Washington","DC",20011
"974","5814 5TH ST NW","Washington","DC",20011
"975","5815 6TH ST NW","Washington","DC",20011
"976","5821 4TH ST NW","Washington","DC",20011
"977","59 BATES ST NW","Washington","DC",20001
"978","5901 8TH ST NE","Washington","DC",20011
"979","5901 8TH ST NE","Washington","DC",20011
"980","6 GIRARD ST NE","Washington","DC",20002
"981","60 HAWTHORNE CT NE","Washington","DC",20017
"982","6019 7TH PL NW","Washington","DC",20011
"983","602 21ST ST NE","Washington","DC",20002
"984","602 SHERIDAN ST NW","Washington","DC",20011
"985","604 COLUMBIA RD NW","Washington","DC",20001
"986","604 HARVARD ST NW","Washington","DC",20001
"987","605 KENYON ST NW","Washington","DC",20010
"988","606 13TH ST NE","Washington","DC",20002
"989","606 HARVARD ST NW","Washington","DC",20001
"990","606 KENSINGTON PL NE","Washington","DC",20011
"991","607 GALLATIN ST NW","Washington","DC",20011
"992","608 A ST NE","Washington","DC",20002
"993","608 G ST NE","Washington","DC",20002
"994","609 ROCK CREEK CHURCH RD NW","Washington","DC",20010
"995","610 INGRAHAM ST NW","Washington","DC",20011
"996","610 MORTON PL NE","Washington","DC",20002
"997","6108 9TH ST NW","Washington","DC",20011
"998","6119 14TH ST NW","Washington","DC",20011
"999","613 16TH ST NE","Washington","DC",20002
